[{"OBJECT_NAME":"COSMOS 2566","OBJECT_ID":"2022-163C","EPOCH":"2026-03-09T21:48:06.708672","MEAN_MOTION":13.97695206,"ECCENTRICITY":0.0007804,"INCLINATION":67.1457,"RA_OF_ASC_NODE":343.8663,"ARG_OF_PERICENTER":202.0486,"MEAN_ANOMALY":158.0264,"EPHEMERIS_TYPE":0,"CLASSIFICATION_TYPE":"U","NORAD_CAT_ID":54383,"ELEMENT_SET_NO":999,"REV_AT_EPOCH":16669,"BSTAR":7.7007e-5,"MEAN_MOTION_DOT":3.3e-7,"MEAN_MOTION_DDOT":0},{"OBJECT_NAME":"FENGYUN 1C DEB","OBJECT_ID":"1999-025BNT","EPOCH":"2026-03-09T09:42:50.375808","MEAN_MOTION":14.26206774,"ECCENTRICITY":0.0198411,"INCLINATION":98.5316,"RA_OF_ASC_NODE":51.5484,"ARG_OF_PERICENTER":293.5919,"MEAN_ANOMALY":225.7224,"EPHEMERIS_TYPE":0,"CLASSIFICATION_TYPE":"U","NORAD_CAT_ID":31285,"ELEMENT_SET_NO":999,"REV_AT_EPOCH":98534,"BSTAR":0.00034470191,"MEAN_MOTION_DOT":9.67e-6,"MEAN_MOTION_DDOT":0}]
